{
  "norad_id": 68326,
  "name": "STARLINK-37206",
  "history": [
    {
      "epoch": "2026-03-31T16:00:01.999584Z",
      "apogee_km": 329.1897052884806,
      "perigee_km": 326.7433187273,
      "latitude_deg": -38.0092911805318,
      "longitude_deg": 39.26665149064821,
      "height_km": 341.4196092842245,
      "semi_major_axis_km": 6706.1035120078905,
      "eccentricity": 0.0001824,
      "inclination_deg": 53.1597,
      "raan_deg": 252.7078,
      "arg_perigee_deg": 25.1701,
      "mean_anomaly_deg": 204.8176,
      "mean_motion_rev_day": 15.80874459
    }
  ]
}